[
    {
        "Altitude(m)": 610405.3304236094,
        "Argument of Periapsis(deg)": 0.0,
        "Eccentricity": 0.0,
        "Inclination(deg)": 60.0,
        "Latitude(deg)": 52.11129196768155,
        "Longitude(deg)": 157.47754491910223,
        "Mean Anomaly(deg)": 114.5455,
        "RAAN(deg)": 125.00000000000001,
        "Satellite Name": "Test1 557",
        "Satellite Number": 557,
        "Semi-Major Axis(m)": 6980739.136638005,
        "Time(s)": 0
    },
    {
        "Altitude(m)": 610321.902940144,
        "Argument of Periapsis(deg)": 0.00010418945913296404,
        "Eccentricity": 0.0,
        "Inclination(deg)": 60.0,
        "Latitude(deg)": 51.74600561127321,
        "Longitude(deg)": 158.24643742326128,
        "Mean Anomaly(deg)": 115.16560614546188,
        "RAAN(deg)": 124.99957995086027,
        "Satellite Name": "Test1 557",
        "Satellite Number": 557,
        "Semi-Major Axis(m)": 6980739.136638005,
        "Time(s)": 10
    }
]